CCSDS_OMM_VERS = 2.0
CREATION_DATE  = 
ORIGINATOR     = 

OBJECT_NAME    = SL-14 R/B
OBJECT_ID      = 1986-046B
CENTER_NAME    = EARTH
REF_FRAME      = TEME
TIME_SYSTEM    = UTC
MEAN_ELEMENT_THEORY = SGP/SGP4

EPOCH          = 2026-02-18T14:39:52.968672
MEAN_MOTION    = 14.85571031
ECCENTRICITY   = .0021618
INCLINATION    = 82.4798
RA_OF_ASC_NODE = 98.2132
ARG_OF_PERICENTER = 292.4309
MEAN_ANOMALY   = 67.4617

EPHEMERIS_TYPE = 0
CLASSIFICATION_TYPE = U
NORAD_CAT_ID   = 16792
ELEMENT_SET_NO = 999
REV_AT_EPOCH   = 12357
BSTAR          = .47229E-4
MEAN_MOTION_DOT = .434E-5
MEAN_MOTION_DDOT = 0

CCSDS_OMM_VERS = 2.0
CREATION_DATE  = 
ORIGINATOR     = 

OBJECT_NAME    = SL-14 R/B
OBJECT_ID      = 1986-055B
CENTER_NAME    = EARTH
REF_FRAME      = TEME
TIME_SYSTEM    = UTC
MEAN_ELEMENT_THEORY = SGP/SGP4

EPOCH          = 2026-02-18T19:46:29.089920
MEAN_MOTION    = 14.85622846
ECCENTRICITY   = .0019787
INCLINATION    = 82.5230
RA_OF_ASC_NODE = 144.4020
ARG_OF_PERICENTER = 38.4534
MEAN_ANOMALY   = 100.9543

EPHEMERIS_TYPE = 0
CLASSIFICATION_TYPE = U
NORAD_CAT_ID   = 16882
ELEMENT_SET_NO = 999
REV_AT_EPOCH   = 11656
BSTAR          = .51807E-4
MEAN_MOTION_DOT = .474E-5
MEAN_MOTION_DDOT = 0

CCSDS_OMM_VERS = 2.0
CREATION_DATE  = 
ORIGINATOR     = 

OBJECT_NAME    = AJISAI (EGS)
OBJECT_ID      = 1986-061A
CENTER_NAME    = EARTH
REF_FRAME      = TEME
TIME_SYSTEM    = UTC
MEAN_ELEMENT_THEORY = SGP/SGP4

EPOCH          = 2026-02-18T22:23:11.114592
MEAN_MOTION    = 12.44515352
ECCENTRICITY   = .0011236
INCLINATION    = 50.0083
RA_OF_ASC_NODE = 151.0255
ARG_OF_PERICENTER = 238.6578
MEAN_ANOMALY   = 231.4633

EPHEMERIS_TYPE = 0
CLASSIFICATION_TYPE = U
NORAD_CAT_ID   = 16908
ELEMENT_SET_NO = 999
REV_AT_EPOCH   = 46566
BSTAR          = .11367E-3
MEAN_MOTION_DOT = -.81E-6
MEAN_MOTION_DDOT = 0

CCSDS_OMM_VERS = 2.0
CREATION_DATE  = 
ORIGINATOR     = 

OBJECT_NAME    = COSMOS 1812
OBJECT_ID      = 1987-003A
CENTER_NAME    = EARTH
REF_FRAME      = TEME
TIME_SYSTEM    = UTC
MEAN_ELEMENT_THEORY = SGP/SGP4

EPOCH          = 2026-02-18T21:08:41.409312
MEAN_MOTION    = 16.02336921
ECCENTRICITY   = .0003494
INCLINATION    = 82.4741
RA_OF_ASC_NODE = 217.0879
ARG_OF_PERICENTER = 298.7461
MEAN_ANOMALY   = 61.3466

EPHEMERIS_TYPE = 0
CLASSIFICATION_TYPE = U
NORAD_CAT_ID   = 17295
ELEMENT_SET_NO = 999
REV_AT_EPOCH   = 14145
BSTAR          = .67661E-3
MEAN_MOTION_DOT = .392292E-2
MEAN_MOTION_DDOT = .66002E-4

CCSDS_OMM_VERS = 2.0
CREATION_DATE  = 
ORIGINATOR     = 

OBJECT_NAME    = SL-14 R/B
OBJECT_ID      = 1987-024B
CENTER_NAME    = EARTH
REF_FRAME      = TEME
TIME_SYSTEM    = UTC
MEAN_ELEMENT_THEORY = SGP/SGP4

EPOCH          = 2026-02-18T15:38:00.622176
MEAN_MOTION    = 14.86113369
ECCENTRICITY   = .0017309
INCLINATION    = 82.5274
RA_OF_ASC_NODE = 110.6595
ARG_OF_PERICENTER = 328.0153
MEAN_ANOMALY   = 32.0011

EPHEMERIS_TYPE = 0
CLASSIFICATION_TYPE = U
NORAD_CAT_ID   = 17567
ELEMENT_SET_NO = 999
REV_AT_EPOCH   = 8530
BSTAR          = .4742E-4
MEAN_MOTION_DOT = .44E-5
MEAN_MOTION_DDOT = 0

CCSDS_OMM_VERS = 2.0
CREATION_DATE  = 
ORIGINATOR     = 

OBJECT_NAME    = COSMOS 1833
OBJECT_ID      = 1987-027A
CENTER_NAME    = EARTH
REF_FRAME      = TEME
TIME_SYSTEM    = UTC
MEAN_ELEMENT_THEORY = SGP/SGP4

EPOCH          = 2026-02-18T07:44:12.196896
MEAN_MOTION    = 14.13057375
ECCENTRICITY   = .0024865
INCLINATION    = 70.9229
RA_OF_ASC_NODE = 6.7200
ARG_OF_PERICENTER = 240.9508
MEAN_ANOMALY   = 118.9122

EPHEMERIS_TYPE = 0
CLASSIFICATION_TYPE = U
NORAD_CAT_ID   = 17589
ELEMENT_SET_NO = 999
REV_AT_EPOCH   = 758
BSTAR          = -.29969E-5
MEAN_MOTION_DOT = -.54E-6
MEAN_MOTION_DDOT = 0

CCSDS_OMM_VERS = 2.0
CREATION_DATE  = 
ORIGINATOR     = 

OBJECT_NAME    = SL-16 R/B
OBJECT_ID      = 1987-027B
CENTER_NAME    = EARTH
REF_FRAME      = TEME
TIME_SYSTEM    = UTC
MEAN_ELEMENT_THEORY = SGP/SGP4

EPOCH          = 2026-02-18T20:18:34.531200
MEAN_MOTION    = 14.17164265
ECCENTRICITY   = .0004485
INCLINATION    = 71.0040
RA_OF_ASC_NODE = 316.2030
ARG_OF_PERICENTER = 176.4990
MEAN_ANOMALY   = 183.6166

EPHEMERIS_TYPE = 0
CLASSIFICATION_TYPE = U
NORAD_CAT_ID   = 17590
ELEMENT_SET_NO = 999
REV_AT_EPOCH   = 1267
BSTAR          = .14749E-3
MEAN_MOTION_DOT = .25E-5
MEAN_MOTION_DDOT = 0

CCSDS_OMM_VERS = 2.0
CREATION_DATE  = 
ORIGINATOR     = 

OBJECT_NAME    = SL-14 R/B
OBJECT_ID      = 1987-038B
CENTER_NAME    = EARTH
REF_FRAME      = TEME
TIME_SYSTEM    = UTC
MEAN_ELEMENT_THEORY = SGP/SGP4

EPOCH          = 2026-02-18T18:30:39.328128
MEAN_MOTION    = 14.85350917
ECCENTRICITY   = .0018075
INCLINATION    = 82.5034
RA_OF_ASC_NODE = 314.6269
ARG_OF_PERICENTER = 224.0962
MEAN_ANOMALY   = 135.8814

EPHEMERIS_TYPE = 0
CLASSIFICATION_TYPE = U
NORAD_CAT_ID   = 17912
ELEMENT_SET_NO = 999
REV_AT_EPOCH   = 7642
BSTAR          = .50056E-4
MEAN_MOTION_DOT = .455E-5
MEAN_MOTION_DDOT = 0

CCSDS_OMM_VERS = 2.0
CREATION_DATE  = 
ORIGINATOR     = 

OBJECT_NAME    = COSMOS 1844
OBJECT_ID      = 1987-041A
CENTER_NAME    = EARTH
REF_FRAME      = TEME
TIME_SYSTEM    = UTC
MEAN_ELEMENT_THEORY = SGP/SGP4

EPOCH          = 2026-02-18T14:09:54.778176
MEAN_MOTION    = 14.14549690
ECCENTRICITY   = .0029069
INCLINATION    = 70.8981
RA_OF_ASC_NODE = 74.4625
ARG_OF_PERICENTER = 48.2604
MEAN_ANOMALY   = 312.0996

EPHEMERIS_TYPE = 0
CLASSIFICATION_TYPE = U
NORAD_CAT_ID   = 17973
ELEMENT_SET_NO = 999
REV_AT_EPOCH   = 88
BSTAR          = .1814E-3
MEAN_MOTION_DOT = .301E-5
MEAN_MOTION_DDOT = 0

CCSDS_OMM_VERS = 2.0
CREATION_DATE  = 
ORIGINATOR     = 

OBJECT_NAME    = SL-14 R/B
OBJECT_ID      = 1987-055B
CENTER_NAME    = EARTH
REF_FRAME      = TEME
TIME_SYSTEM    = UTC
MEAN_ELEMENT_THEORY = SGP/SGP4

EPOCH          = 2026-02-18T19:39:13.504320
MEAN_MOTION    = 14.85604398
ECCENTRICITY   = .0022295
INCLINATION    = 82.5012
RA_OF_ASC_NODE = 6.8122
ARG_OF_PERICENTER = 76.8548
MEAN_ANOMALY   = 283.5154

EPHEMERIS_TYPE = 0
CLASSIFICATION_TYPE = U
NORAD_CAT_ID   = 18153
ELEMENT_SET_NO = 999
REV_AT_EPOCH   = 6713
BSTAR          = .57951E-4
MEAN_MOTION_DOT = .528E-5
MEAN_MOTION_DDOT = 0

CCSDS_OMM_VERS = 2.0
CREATION_DATE  = 
ORIGINATOR     = 

OBJECT_NAME    = COSMOS 1867
OBJECT_ID      = 1987-060A
CENTER_NAME    = EARTH
REF_FRAME      = TEME
TIME_SYSTEM    = UTC
MEAN_ELEMENT_THEORY = SGP/SGP4

EPOCH          = 2026-02-18T20:35:37.743072
MEAN_MOTION    = 14.31499917
ECCENTRICITY   = .0014214
INCLINATION    = 65.0124
RA_OF_ASC_NODE = 359.4403
ARG_OF_PERICENTER = 277.5385
MEAN_ANOMALY   = 82.4085

EPHEMERIS_TYPE = 0
CLASSIFICATION_TYPE = U
NORAD_CAT_ID   = 18187
ELEMENT_SET_NO = 999
REV_AT_EPOCH   = 1724
BSTAR          = .28043E-4
MEAN_MOTION_DOT = -.26E-6
MEAN_MOTION_DDOT = 0

CCSDS_OMM_VERS = 2.0
CREATION_DATE  = 
ORIGINATOR     = 

OBJECT_NAME    = SL-14 R/B
OBJECT_ID      = 1988-001B
CENTER_NAME    = EARTH
REF_FRAME      = TEME
TIME_SYSTEM    = UTC
MEAN_ELEMENT_THEORY = SGP/SGP4

EPOCH          = 2026-02-18T19:30:33.183648
MEAN_MOTION    = 14.85503018
ECCENTRICITY   = .0016831
INCLINATION    = 82.5118
RA_OF_ASC_NODE = 213.1131
ARG_OF_PERICENTER = 303.5266
MEAN_ANOMALY   = 56.4342

EPHEMERIS_TYPE = 0
CLASSIFICATION_TYPE = U
NORAD_CAT_ID   = 18749
ELEMENT_SET_NO = 999
REV_AT_EPOCH   = 3922
BSTAR          = .51968E-4
MEAN_MOTION_DOT = .473E-5
MEAN_MOTION_DDOT = 0

