SL-14 R/B               
1 16792U 86046B   26049.61102973  .00000434  00000+0  47229-4 0  9997
2 16792  82.4798  98.2132 0021618 292.4309  67.4617 14.85571031123571
SL-14 R/B               
1 16882U 86055B   26049.82394780  .00000474  00000+0  51807-4 0  9990
2 16882  82.5230 144.4020 0019787  38.4534 100.9543 14.85622846116568
AJISAI (EGS)            
1 16908U 86061A   26049.93276753 -.00000081  00000+0  11367-3 0  9998
2 16908  50.0083 151.0255 0011236 238.6578 231.4633 12.44515352465664
COSMOS 1812             
1 17295U 87003A   26049.88103483  .00392292  66002-4  67661-3 0  9992
2 17295  82.4741 217.0879 0003494 298.7461  61.3466 16.02336921141457
SL-14 R/B               
1 17567U 87024B   26049.65139609  .00000440  00000+0  47420-4 0  9995
2 17567  82.5274 110.6595 0017309 328.0153  32.0011 14.86113369 85300
COSMOS 1833             
1 17589U 87027A   26049.32236339 -.00000054  00000+0 -29969-5 0  9996
2 17589  70.9229   6.7200 0024865 240.9508 118.9122 14.13057375  7589
SL-16 R/B               
1 17590U 87027B   26049.84623300  .00000250  00000+0  14749-3 0  9997
2 17590  71.0040 316.2030 0004485 176.4990 183.6166 14.17164265 12672
SL-14 R/B               
1 17912U 87038B   26049.77128852  .00000455  00000+0  50056-4 0  9990
2 17912  82.5034 314.6269 0018075 224.0962 135.8814 14.85350917 76423
COSMOS 1844             
1 17973U 87041A   26049.59021734  .00000301  00000+0  18140-3 0  9999
2 17973  70.8981  74.4625 0029069  48.2604 312.0996 14.14549690   889
SL-14 R/B               
1 18153U 87055B   26049.81890630  .00000528  00000+0  57951-4 0  9994
2 18153  82.5012   6.8122 0022295  76.8548 283.5154 14.85604398 67138
COSMOS 1867             
1 18187U 87060A   26049.85807573 -.00000026  00000+0  28043-4 0  9999
2 18187  65.0124 359.4403 0014214 277.5385  82.4085 14.31499917 17241
SL-14 R/B               
1 18749U 88001B   26049.81288407  .00000473  00000+0  51968-4 0  9991
2 18749  82.5118 213.1131 0016831 303.5266  56.4342 14.85503018 39227
